     2              NAVIGATION DATA                         RINEX VERSION / TYPE
CCRINEXN V1.6.0 UX  CDDIS               09-SEP-17 17:31     PGM / RUN BY / DATE 
IGS BROADCAST EPHEMERIS FILE                                COMMENT             
    0.1304D-07  0.2235D-07 -0.5960D-07 -0.1192D-06          ION ALPHA           
    0.1044D+06  0.9830D+05 -0.1311D+06 -0.3277D+06          ION BETA            
    0.279396772385D-08 0.710542735760D-14   589824     1965 DELTA-UTC: A0,A1,T,W
    18                                                      LEAP SECONDS        
                                                            END OF HEADER       
22 17  9  8  2  0  0.0-0.114538706839D-03-0.126192389871D-10 0.000000000000D+00
    0.530000000000D+02-0.824687500000D+02 0.523950396066D-08 0.238247154762D+01
   -0.430829823017D-05 0.729374750517D-02 0.102687627077D-04 0.515374126244D+04
    0.439200000000D+06 0.838190317154D-07 0.300389098652D+01-0.596046447754D-07
    0.924474825710D+00 0.165031250000D+03-0.168199184493D+01-0.827641617453D-08
   -0.275368613065D-09 0.100000000000D+01 0.196500000000D+04 0.000000000000D+00
    0.200000000000D+01 0.000000000000D+00-0.176951289177D-07 0.530000000000D+02
    0.436650000000D+06 0.400000000000D+01 0.000000000000D+00 0.000000000000D+00
23 17  9  8  2  0  0.0-0.217126682401D-03-0.341060513165D-12 0.000000000000D+00
    0.390000000000D+02 0.705312500000D+02 0.505771069470D-08 0.163843313874D+01
    0.375136733055D-05 0.118859846843D-01 0.100135803223D-04 0.515369220543D+04
    0.439200000000D+06-0.301748514175D-06-0.219355289769D+01 0.104308128357D-06
    0.944140875874D+00 0.182000000000D+03-0.242440888268D+01-0.840677838454D-08
    0.457876209170D-09 0.100000000000D+01 0.196500000000D+04 0.000000000000D+00
    0.200000000000D+01 0.000000000000D+00-0.204890966415D-07 0.390000000000D+02
    0.432000000000D+06 0.000000000000D+00 0.000000000000D+00 0.000000000000D+00
24 17  9  8  2  0  0.0-0.394908711314D-04-0.227373675443D-12 0.000000000000D+00
    0.290000000000D+02-0.515625000000D+01 0.563844926305D-08 0.110697290813D+01
   -0.121071934700D-06 0.587422936223D-02 0.276975333691D-05 0.515367022705D+04
    0.439200000000D+06 0.279396772385D-07-0.117072116533D+01 0.763684511185D-07
    0.943890049792D+00 0.315000000000D+03 0.469384530584D+00-0.891608564757D-08
   -0.185364862348D-09 0.100000000000D+01 0.196500000000D+04 0.000000000000D+00
    0.200000000000D+01 0.000000000000D+00 0.279396772385D-08 0.290000000000D+02
    0.432030000000D+06 0.000000000000D+00 0.000000000000D+00 0.000000000000D+00
25 17  9  8  2  0  0.0-0.452474690974D-03-0.636646291241D-11 0.000000000000D+00
    0.580000000000D+02-0.608750000000D+02 0.404659727948D-08-0.849511649799D+00
   -0.327453017235D-05 0.655522511806D-02 0.117253512144D-04 0.515376303673D+04
    0.439200000000D+06 0.108033418655D-06-0.855002222732D-01 0.111758708954D-06
    0.976759394978D+00 0.162062500000D+03 0.825995000293D+00-0.788247156436D-08
   -0.608953942827D-09 0.100000000000D+01 0.196500000000D+04 0.000000000000D+00
    0.200000000000D+01 0.000000000000D+00 0.558793544769D-08 0.580000000000D+02
    0.432030000000D+06 0.000000000000D+00 0.000000000000D+00 0.000000000000D+00
26 17  9  8  2  0  0.0-0.432042405009D-03 0.102318153950D-10 0.000000000000D+00
    0.170000000000D+02-0.608750000000D+02 0.438375402952D-08-0.143347565918D+01
   -0.306405127049D-05 0.187726400327D-02 0.109579414129D-04 0.515376412773D+04
    0.439200000000D+06-0.838190317154D-07-0.102738709103D+00-0.633299350738D-07
    0.958449923378D+00 0.169281250000D+03 0.133233215984D-02-0.795533137148D-08
   -0.489663253583D-09 0.100000000000D+01 0.196500000000D+04 0.000000000000D+00
    0.200000000000D+01 0.000000000000D+00 0.745058059692D-08 0.170000000000D+02
    0.434778000000D+06 0.400000000000D+01 0.000000000000D+00 0.000000000000D+00
27 17  9  8  2  0  0.0 0.321903731674D-03 0.522959453519D-11 0.000000000000D+00
    0.180000000000D+02 0.810000000000D+02 0.397730852801D-08 0.303169554547D+01
    0.420585274696D-05 0.492400815710D-02 0.974349677563D-05 0.515367257309D+04
    0.439200000000D+06-0.111758708954D-07 0.953543616519D+00-0.521540641785D-07
    0.975618806028D+00 0.199687500000D+03 0.398284827693D+00-0.781461122421D-08
    0.457519057505D-09 0.100000000000D+01 0.196500000000D+04 0.000000000000D+00
    0.200000000000D+01 0.000000000000D+00 0.139698386192D-08 0.180000000000D+02
    0.432000000000D+06 0.400000000000D+01 0.000000000000D+00 0.000000000000D+00
29 17  9  8  2  0  0.0 0.565588939935D-03-0.432009983342D-11 0.000000000000D+00
    0.610000000000D+02 0.846562500000D+02 0.391266308242D-08-0.198719337060D+01
    0.447966158390D-05 0.542399589904D-03 0.981986522675D-05 0.515357513618D+04
    0.439200000000D+06 0.149011611938D-07 0.101636835841D+01-0.502914190292D-07
    0.981877685981D+00 0.202500000000D+03 0.888114390375D+00-0.783675524474D-08
    0.487520301906D-09 0.100000000000D+01 0.196500000000D+04 0.000000000000D+00
    0.200000000000D+01 0.000000000000D+00-0.102445483208D-07 0.610000000000D+02
    0.432030000000D+06 0.000000000000D+00 0.000000000000D+00 0.000000000000D+00
30 17  9  8  2  0  0.0 0.141721218824D-03-0.204636307899D-11 0.000000000000D+00
    0.510000000000D+02-0.271562500000D+02 0.540879672667D-08 0.163687862736D+00
   -0.156462192535D-05 0.305773806758D-02 0.296346843243D-05 0.515362533188D+04
    0.439200000000D+06-0.372529029846D-08-0.107802672595D+01-0.149011611938D-07
    0.946582945505D+00 0.311968750000D+03-0.306516913434D+01-0.873000649696D-08
   -0.288940606965D-09 0.100000000000D+01 0.196500000000D+04 0.000000000000D+00
    0.200000000000D+01 0.000000000000D+00 0.372529029846D-08 0.510000000000D+02
    0.432000000000D+06 0.400000000000D+01 0.000000000000D+00 0.000000000000D+00
31 17  9  8  2  0  0.0 0.176724512130D-03-0.250111042988D-11 0.000000000000D+00
    0.860000000000D+02-0.128437500000D+02 0.502235186772D-08-0.166715285389D-01
   -0.786036252975D-06 0.848971714731D-02 0.336207449436D-05 0.515376657105D+04
    0.439200000000D+06 0.987201929092D-07-0.110406446753D+01-0.149011611938D-07
    0.965590901971D+00 0.317156250000D+03-0.244274266066D+00-0.858464321851D-08
   -0.201079805584D-09 0.100000000000D+01 0.196500000000D+04 0.000000000000D+00
    0.200000000000D+01 0.000000000000D+00-0.135041773319D-07 0.860000000000D+02
    0.435780000000D+06 0.000000000000D+00 0.000000000000D+00 0.000000000000D+00
32 17  9  8  2  0  0.0-0.496468506753D-03-0.602540239925D-11 0.000000000000D+00
    0.290000000000D+02 0.679687500000D+02 0.467090899292D-08-0.266447529750D+01
    0.358745455742D-05 0.143408379517D-02 0.100191682577D-04 0.515376137543D+04
    0.439200000000D+06 0.279396772385D-07-0.219068591326D+01-0.109896063805D-06
    0.957746397296D+00 0.184468750000D+03-0.254829996964D+01-0.810569478205D-08
    0.493949159352D-09 0.100000000000D+01 0.196500000000D+04 0.000000000000D+00
    0.200000000000D+01 0.000000000000D+00 0.931322574616D-09 0.290000000000D+02
    0.432030000000D+06 0.000000000000D+00 0.000000000000D+00 0.000000000000D+00
16 17  9  8  3 59 12.0 0.369725748897D-04 0.113686837722D-12 0.000000000000D+00
    0.420000000000D+02-0.533750000000D+02 0.366836716559D-08-0.133483689649D+01
   -0.278651714325D-05 0.928684126120D-02 0.120010226965D-04 0.515376121712D+04
    0.446352000000D+06 0.156462192535D-06-0.101879546092D-01-0.169500708580D-06
    0.989409705503D+00 0.163937500000D+03 0.459922237470D+00-0.756745777153D-08
   -0.446089998274D-09 0.100000000000D+01 0.196500000000D+04 0.000000000000D+00
    0.200000000000D+01 0.000000000000D+00-0.107102096081D-07 0.420000000000D+02
    0.445320000000D+06 0.000000000000D+00 0.000000000000D+00 0.000000000000D+00
 2 17  9  8  3 59 44.0 0.335462391377D-03-0.898126018001D-11 0.000000000000D+00
    0.170000000000D+02-0.122812500000D+02 0.506485382864D-08 0.225641821361D+01
   -0.840052962303D-06 0.170467302669D-01 0.213086605072D-05 0.515357315254D+04
    0.446384000000D+06 0.149011611938D-06 0.195546964973D+01-0.331550836563D-06
    0.947135053714D+00 0.328312500000D+03-0.195760361418D+01-0.842892252703D-08
    0.232152527228D-10 0.100000000000D+01 0.196500000000D+04 0.000000000000D+00
    0.200000000000D+01 0.000000000000D+00-0.204890966415D-07 0.170000000000D+02
    0.439200000000D+06 0.400000000000D+01 0.000000000000D+00 0.000000000000D+00
 9 17  9  8  3 59 44.0 0.439089722931D-03 0.636646291241D-11 0.000000000000D+00
    0.550000000000D+02 0.691562500000D+02 0.475091210816D-08-0.209590277065D+01
    0.373460352421D-05 0.780406524427D-03 0.969879329205D-05 0.515378520203D+04
    0.446384000000D+06-0.204890966415D-07-0.219445825673D+01-0.186264514923D-07
    0.953293603819D+00 0.191125000000D+03 0.191133589385D+01-0.815069700622D-08
    0.549308598607D-09 0.100000000000D+01 0.196500000000D+04 0.000000000000D+00
    0.200000000000D+01 0.000000000000D+00 0.931322574616D-09 0.550000000000D+02
    0.439200000000D+06 0.000000000000D+00 0.000000000000D+00 0.000000000000D+00
14 17  9  8  3 59 44.0-0.830786302686D-04-0.102318153950D-11 0.000000000000D+00
    0.290000000000D+02 0.799062500000D+02 0.454161774854D-08-0.253234813389D+01
    0.409968197346D-05 0.935755518731D-02 0.985711812973D-05 0.515369601631D+04
    0.446384000000D+06 0.210478901863D-06-0.210681183708D+01 0.558793544769D-08
    0.961706572127D+00 0.186531250000D+03-0.194931676258D+01-0.799140398300D-08
    0.670027922034D-09 0.100000000000D+01 0.196500000000D+04 0.000000000000D+00
    0.200000000000D+01 0.000000000000D+00-0.977888703346D-08 0.290000000000D+02
    0.439230000000D+06 0.000000000000D+00 0.000000000000D+00 0.000000000000D+00
